{"type": "FeatureCollection", "features": [ {"type": "Feature", "properties": {"norad_id": 17070, "name": "POLAR BEAR", "group": "nnss", "lat": 20.04634218260185, "lon": 3.0785387199288903, "alt_km": 975.7243045630676, "timestamp": "2025-12-26T14:28:47.970443+00:00", "meta": {"OBJECT_NAME": "POLAR BEAR", "OBJECT_ID": "1986-088A", "EPOCH": "2025-12-26T02:02:54.701376", "MEAN_MOTION": 13.75253549, "ECCENTRICITY": 0.00412664, "INCLINATION": 89.6169, "RA_OF_ASC_NODE": 183.2393, "ARG_OF_PERICENTER": 80.8818, "MEAN_ANOMALY": 35.6003, "EPHEMERIS_TYPE": 0, "CLASSIFICATION_TYPE": "U", "NORAD_CAT_ID": 17070, "ELEMENT_SET_NO": 999, "REV_AT_EPOCH": 96162, "BSTAR": 0.00010557917, "MEAN_MOTION_DOT": 1.13e-06, "MEAN_MOTION_DDOT": 0}, "tle": {"line1": "1 17070U 86088A   25360.08535534  .00000113  00000+0  10558-3 0  9990", "line2": "2 17070  89.6169 183.2393 0041266  80.8818  35.6003 13.75253549961622"}}, "geometry": {"type": "Point", "coordinates": [3.0785387199288903, 20.04634218260185]}}, {"type": "Feature", "properties": {"norad_id": 18361, "name": "OSCAR 27", "group": "nnss", "lat": -15.223475445484837, "lon": 79.89227759374104, "alt_km": 1169.1422995601988, "timestamp": "2025-12-26T14:28:47.970453+00:00", "meta": {"OBJECT_NAME": "OSCAR 27", "OBJECT_ID": "1987-080A", "EPOCH": "2025-12-26T03:50:36.749184", "MEAN_MOTION": 13.44909474, "ECCENTRICITY": 0.01040483, "INCLINATION": 90.3736, "RA_OF_ASC_NODE": 79.774, "ARG_OF_PERICENTER": 185.2058, "MEAN_ANOMALY": 174.8018, "EPHEMERIS_TYPE": 0, "CLASSIFICATION_TYPE": "U", "NORAD_CAT_ID": 18361, "ELEMENT_SET_NO": 999, "REV_AT_EPOCH": 87737, "BSTAR": 0.00016599641, "MEAN_MOTION_DOT": 1.09e-06, "MEAN_MOTION_DDOT": 0}, "tle": {"line1": "1 18361U 87080A   25360.16014756  .00000109  00000+0  16600-3 0  9993", "line2": "2 18361  90.3736  79.7740 0104048 185.2058 174.8018 13.44909474877375"}}, "geometry": {"type": "Point", "coordinates": [79.89227759374104, -15.223475445484837]}}, {"type": "Feature", "properties": {"norad_id": 18362, "name": "OSCAR 29", "group": "nnss", "lat": -25.308805609539327, "lon": 80.42804608444028, "alt_km": 1145.773070627214, "timestamp": "2025-12-26T14:28:47.970467+00:00", "meta": {"OBJECT_NAME": "OSCAR 29", "OBJECT_ID": "1987-080B", "EPOCH": "2025-12-26T04:01:36.827040", "MEAN_MOTION": 13.44450933, "ECCENTRICITY": 0.01048512, "INCLINATION": 90.3748, "RA_OF_ASC_NODE": 80.2344, "ARG_OF_PERICENTER": 208.3196, "MEAN_ANOMALY": 178.7197, "EPHEMERIS_TYPE": 0, "CLASSIFICATION_TYPE": "U", "NORAD_CAT_ID": 18362, "ELEMENT_SET_NO": 999, "REV_AT_EPOCH": 87690, "BSTAR": 0.00014977521, "MEAN_MOTION_DOT": 9.8e-07, "MEAN_MOTION_DDOT": 0}, "tle": {"line1": "1 18362U 87080B   25360.16778735  .00000098  00000+0  14978-3 0  9991", "line2": "2 18362  90.3748  80.2344 0104851 208.3196 178.7197 13.44450933876908"}}, "geometry": {"type": "Point", "coordinates": [80.42804608444028, -25.308805609539327]}}, {"type": "Feature", "properties": {"norad_id": 19070, "name": "OSCAR 23", "group": "nnss", "lat": -2.6423077246532363, "lon": 16.836468205557203, "alt_km": 1273.5887735114757, "timestamp": "2025-12-26T14:28:47.970490+00:00", "meta": {"OBJECT_NAME": "OSCAR 23", "OBJECT_ID": "1988-033A", "EPOCH": "2025-12-26T07:18:59.249088", "MEAN_MOTION": 13.2778922, "ECCENTRICITY": 0.01905714, "INCLINATION": 90.3203, "RA_OF_ASC_NODE": 16.8124, "ARG_OF_PERICENTER": 142.3052, "MEAN_ANOMALY": 230.5453, "EPHEMERIS_TYPE": 0, "CLASSIFICATION_TYPE": "U", "NORAD_CAT_ID": 19070, "ELEMENT_SET_NO": 999, "REV_AT_EPOCH": 82433, "BSTAR": 0.00011377735, "MEAN_MOTION_DOT": 6.6e-07, "MEAN_MOTION_DDOT": 0}, "tle": {"line1": "1 19070U 88033A   25360.30485242  .00000066  00000+0  11378-3 0  9997", "line2": "2 19070  90.3203  16.8124 0190571 142.3052 230.5453 13.27789220824331"}}, "geometry": {"type": "Point", "coordinates": [16.836468205557203, -2.6423077246532363]}}, {"type": "Feature", "properties": {"norad_id": 19071, "name": "OSCAR 32", "group": "nnss", "lat": 62.978989157475404, "lon": -162.41607065798976, "alt_km": 1008.5404424780209, "timestamp": "2025-12-26T14:28:47.970504+00:00", "meta": {"OBJECT_NAME": "OSCAR 32", "OBJECT_ID": "1988-033B", "EPOCH": "2025-12-26T01:22:17.949216", "MEAN_MOTION": 13.2795587, "ECCENTRICITY": 0.01892824, "INCLINATION": 90.3208, "RA_OF_ASC_NODE": 16.9375, "ARG_OF_PERICENTER": 129.9225, "MEAN_ANOMALY": 257.8987, "EPHEMERIS_TYPE": 0, "CLASSIFICATION_TYPE": "U", "NORAD_CAT_ID": 19071, "ELEMENT_SET_NO": 999, "REV_AT_EPOCH": 82442, "BSTAR": 0.00012879486, "MEAN_MOTION_DOT": 7.4e-07, "MEAN_MOTION_DDOT": 0}, "tle": {"line1": "1 19071U 88033B   25360.05715219  .00000074  00000+0  12879-3 0  9996", "line2": "2 19071  90.3208  16.9375 0189282 129.9225 257.8987 13.27955870824426"}}, "geometry": {"type": "Point", "coordinates": [-162.41607065798976, 62.978989157475404]}}, {"type": "Feature", "properties": {"norad_id": 19223, "name": "NOVA 2", "group": "nnss", "lat": 64.81498448266152, "lon": 78.2840494039637, "alt_km": 1165.8438464709334, "timestamp": "2025-12-26T14:28:47.970515+00:00", "meta": {"OBJECT_NAME": "NOVA 2", "OBJECT_ID": "1988-052A", "EPOCH": "2025-12-26T05:20:51.532224", "MEAN_MOTION": 13.22937541, "ECCENTRICITY": 0.00294464, "INCLINATION": 89.9863, "RA_OF_ASC_NODE": 78.2554, "ARG_OF_PERICENTER": 339.4422, "MEAN_ANOMALY": 73.9011, "EPHEMERIS_TYPE": 0, "CLASSIFICATION_TYPE": "U", "NORAD_CAT_ID": 19223, "ELEMENT_SET_NO": 999, "REV_AT_EPOCH": 81126, "BSTAR": 0.00012462973, "MEAN_MOTION_DOT": 6.1e-07, "MEAN_MOTION_DDOT": 0}, "tle": {"line1": "1 19223U 88052A   25360.22281866  .00000061  00000+0  12463-3 0  9996", "line2": "2 19223  89.9863  78.2554 0029446 339.4422  73.9011 13.22937541811261"}}, "geometry": {"type": "Point", "coordinates": [78.2840494039637, 64.81498448266152]}}, {"type": "Feature", "properties": {"norad_id": 19419, "name": "OSCAR 25", "group": "nnss", "lat": 41.59395168242591, "lon": 20.258909427907234, "alt_km": 1164.6871820654715, "timestamp": "2025-12-26T14:28:47.970526+00:00", "meta": {"OBJECT_NAME": "OSCAR 25", "OBJECT_ID": "1988-074A", "EPOCH": "2025-12-26T02:01:24.098880", "MEAN_MOTION": 13.42625663, "ECCENTRICITY": 0.00952772, "INCLINATION": 90.0337, "RA_OF_ASC_NODE": 20.2871, "ARG_OF_PERICENTER": 207.2859, "MEAN_ANOMALY": 207.4809, "EPHEMERIS_TYPE": 0, "CLASSIFICATION_TYPE": "U", "NORAD_CAT_ID": 19419, "ELEMENT_SET_NO": 999, "REV_AT_EPOCH": 82819, "BSTAR": 0.00011945836, "MEAN_MOTION_DOT": 7.8e-07, "MEAN_MOTION_DDOT": 0}, "tle": {"line1": "1 19419U 88074A   25360.08430670  .00000078  00000+0  11946-3 0  9993", "line2": "2 19419  90.0337  20.2871 0095277 207.2859 207.4809 13.42625663828197"}}, "geometry": {"type": "Point", "coordinates": [20.258909427907234, 41.59395168242591]}}, {"type": "Feature", "properties": {"norad_id": 19420, "name": "OSCAR 31", "group": "nnss", "lat": -75.15387576970845, "lon": 20.774862816561907, "alt_km": 1100.2460816721978, "timestamp": "2025-12-26T14:28:47.970536+00:00", "meta": {"OBJECT_NAME": "OSCAR 31", "OBJECT_ID": "1988-074B", "EPOCH": "2025-12-26T02:39:29.801376", "MEAN_MOTION": 13.42586716, "ECCENTRICITY": 0.00936838, "INCLINATION": 90.0354, "RA_OF_ASC_NODE": 20.6395, "ARG_OF_PERICENTER": 201.3536, "MEAN_ANOMALY": 223.1105, "EPHEMERIS_TYPE": 0, "CLASSIFICATION_TYPE": "U", "NORAD_CAT_ID": 19420, "ELEMENT_SET_NO": 999, "REV_AT_EPOCH": 82830, "BSTAR": 9.7645059e-05, "MEAN_MOTION_DOT": 6.6e-07, "MEAN_MOTION_DDOT": 0}, "tle": {"line1": "1 19420U 88074B   25360.11076159  .00000066  00000+0  97645-4 0  9995", "line2": "2 19420  90.0354  20.6395 0093683 201.3536 223.1105 13.42586716828301"}}, "geometry": {"type": "Point", "coordinates": [20.774862816561907, -75.15387576970845]}}]}